OBJECT_NAME,OBJECT_ID,EPOCH,MEAN_MOTION,ECCENTRICITY,INCLINATION,RA_OF_ASC_NODE,ARG_OF_PERICENTER,MEAN_ANOMALY,EPHEMERIS_TYPE,CLASSIFICATION_TYPE,NORAD_CAT_ID,ELEMENT_SET_NO,REV_AT_EPOCH,BSTAR,MEAN_MOTION_DOT,MEAN_MOTION_DDOT
OCEANSAT-2,2009-051A,2026-06-15T04:45:02.363328,13.99664691,.001505,98.2324,153.2478,242.0252,117.9392,0,U,35931,999,87905,-.37787E-4,-.93E-6,0
WORLDVIEW-2 (WV-2),2009-055A,2026-06-15T03:29:57.308352,14.37898892,.000359,98.4736,239.6234,215.0726,145.0225,0,U,35946,999,87535,.49967E-4,.107E-5,0
SMOS,2009-059A,2026-06-15T02:30:42.610176,14.39771604,.0001323,98.4424,353.4701,89.3240,270.8100,0,U,36036,999,87315,.80976E-4,.21E-5,0
YAOGAN-7,2009-069A,2026-06-15T03:00:43.472160,14.78008057,.0025674,98.0075,52.0052,48.0944,312.2451,0,U,36110,999,88932,.66233E-4,.427E-5,0
TANDEM-X,2010-030A,2026-06-14T13:22:04.319616,15.19148396,.0001853,97.4451,173.3020,84.5205,275.6241,0,U,36605,999,88624,.26723E-4,.494E-5,0
CARTOSAT-2B,2010-035A,2026-06-15T04:10:55.138656,14.78660427,.0011072,97.9957,216.7368,190.3072,169.7913,0,U,36795,999,85955,.14104E-3,.982E-5,0
YAOGAN-10,2010-038A,2026-06-15T04:49:04.761984,14.85343980,.0001701,97.8975,189.6207,86.0624,3.2935,0,U,36834,999,85691,.15052E-3,.124E-4,0
COSMO-SKYMED 4,2010-060A,2026-06-15T03:33:41.214816,14.82153853,.0001437,97.8880,349.7778,82.3950,277.7426,0,U,37216,999,84426,.11159E-3,.836E-5,0
RESOURCESAT-2,2011-015A,2026-06-15T04:31:41.735136,14.21605985,.0010168,98.7644,233.6442,261.9061,98.0963,0,U,37387,999,78589,.46636E-4,.58E-6,0
HAIYANG-2A,2011-043A,2026-06-15T03:29:44.096064,13.74458398,.0006215,99.3388,168.8667,94.0539,266.1321,0,U,37781,999,74637,-.11882E-3,-.156E-5,0
RASAT,2011-044D,2026-06-15T04:55:42.826656,14.68164960,.0020017,98.0580,257.6320,195.2215,249.1956,0,U,37791,999,79289,.94432E-4,.496E-5,0
SRMSAT,2011-058D,2026-06-15T02:14:35.216160,14.11575160,.0011839,19.9720,72.1399,180.5594,207.7984,0,U,37841,999,75752,.49299E-4,.356E-5,0
PLEIADES 1A,2011-076F,2026-06-15T05:01:10.500384,14.58569979,.0001619,98.1982,241.3382,97.4941,347.0129,0,U,38012,999,77170,.69063E-4,.275E-5,0
ZIYUAN 1-02C (ZY 1-02C),2011-079A,2026-06-15T04:52:34.384800,14.38212729,.0005606,98.4079,233.5528,323.6105,129.4038,0,U,38038,999,75892,.6542E-4,.156E-5,0
ARIRANG-3 (KOMPSAT-3),2012-025B,2026-06-15T04:26:31.195392,14.62204582,.000661,98.1176,123.6795,114.4264,245.7628,0,U,38338,999,75105,.80871E-4,.361E-5,0
EXACTVIEW-1 (ADS-1B),2012-039C,2026-06-14T22:10:06.699360,14.24983955,.0011044,98.9775,283.2628,172.7590,187.3749,0,U,38709,999,72238,.56289E-4,.85E-6,0
SPOT 6,2012-047A,2026-06-15T05:00:05.075712,14.58561382,.0001493,98.2126,233.5401,93.0431,267.0939,0,U,38755,999,73276,.2383E-4,.65E-6,0
PLEIADES 1B,2012-068A,2026-06-15T05:27:19.274688,14.58559554,.000165,98.1954,241.3055,93.0090,267.1298,0,U,39019,999,72056,.6781E-4,.27E-5,0
GOKTURK 2,2012-073A,2026-06-15T04:22:07.271904,14.75541742,.0001667,97.6816,3.7145,57.7961,302.3411,0,U,39030,999,72421,.10564E-3,.672E-5,0
LANDSAT 8,2013-008A,2026-06-15T04:05:42.842400,14.57093224,.0001358,98.2302,236.3298,93.6236,266.5117,0,U,39084,999,69760,.69657E-4,.268E-5,0
SARAL,2013-009A,2026-06-14T22:42:13.672512,14.32855455,.00008178,98.5556,352.5416,323.5406,36.5722,0,U,39086,999,69528,.45891741E-4,.81E-6,0
GAOFEN-1,2013-018A,2026-06-14T23:05:36.087936,14.76534617,.0015711,97.9102,238.0750,274.2864,85.6551,0,U,39150,999,70791,.10160685E-3,.659E-5,0
VNREDSAT 1,2013-021B,2026-06-15T04:14:02.400288,14.64854848,.0001705,97.9085,219.6700,90.1334,270.0065,0,U,39160,999,69999,.83499E-4,.401E-5,0
ARIRANG-5 (KOMPSAT-5),2013-042A,2026-06-15T04:05:58.898112,15.04486149,.0005234,97.6205,352.9000,124.8435,235.3284,0,U,39227,999,70355,.87144E-4,.1159E-4,0
SKYSAT-A,2013-066C,2026-06-15T03:22:57.939168,15.12966700,.0020259,97.3815,215.6034,324.9859,35.0039,0,U,39418,999,68817,.16874E-3,.2926E-4,0
DUBAISAT-2,2013-066D,2026-06-15T05:10:22.251648,15.10168845,.0012588,97.4556,156.4106,47.3070,312.9218,0,U,39419,999,68609,.1255E-3,.1989E-4,0
GPM-CORE,2014-009C,2026-06-15T03:17:57.696576,15.44532602,.001194,64.9724,314.9909,250.7934,109.1914,0,U,39574,999,69749,.23326E-3,.10673E-3,0
SENTINEL-1A,2014-016A,2026-06-15T04:09:25.425216,14.59197881,.0001423,98.1773,173.7351,82.2559,277.8802,0,U,39634,999,64972,-.72037E-4,-.385E-5,0
KAZEOSAT 1,2014-024A,2026-06-15T03:33:33.863904,14.42079355,.0001376,98.3212,238.6459,73.9628,286.1713,0,U,39731,999,63826,.62526E-4,.163E-5,0
ALOS-2,2014-029A,2026-06-15T05:53:26.542176,14.79467123,.0001672,97.9222,263.4363,93.1225,267.0178,0,U,39766,999,65129,.21759E-3,.1574E-4,0
KAZEOSAT 2,2014-033A,2026-06-15T03:24:17.176608,14.85468375,.0008099,97.5406,5.8624,337.0285,23.0568,0,U,40010,999,64865,.53767E-4,.414E-5,0
