OCEANSAT-2              
1 35931U 09051A   26166.19794402 -.00000093  00000+0 -37787-4 0  9992
2 35931  98.2324 153.2478 0015050 242.0252 117.9392 13.99664691879054
WORLDVIEW-2 (WV-2)      
1 35946U 09055A   26166.14580218  .00000107  00000+0  49967-4 0  9992
2 35946  98.4736 239.6234 0003590 215.0726 145.0225 14.37898892875351
SMOS                    
1 36036U 09059A   26166.10465984  .00000210  00000+0  80976-4 0  9995
2 36036  98.4424 353.4701 0001323  89.3240 270.8100 14.39771604873153
YAOGAN-7                
1 36110U 09069A   26166.12550315  .00000427  00000+0  66233-4 0  9994
2 36110  98.0075  52.0052 0025674  48.0944 312.2451 14.78008057889327
TANDEM-X                
1 36605U 10030A   26165.55699444  .00000494  00000+0  26723-4 0  9990
2 36605  97.4451 173.3020 0001853  84.5205 275.6241 15.19148396886241
CARTOSAT-2B             
1 36795U 10035A   26166.17424929  .00000982  00000+0  14104-3 0  9999
2 36795  97.9957 216.7368 0011072 190.3072 169.7913 14.78660427859557
YAOGAN-10               
1 36834U 10038A   26166.20074956  .00001240  00000+0  15052-3 0  9992
2 36834  97.8975 189.6207 0001701  86.0624   3.2935 14.85343980856915
COSMO-SKYMED 4          
1 37216U 10060A   26166.14839369  .00000836  00000+0  11159-3 0  9996
2 37216  97.8880 349.7778 0001437  82.3950 277.7426 14.82153853844267
RESOURCESAT-2           
1 37387U 11015A   26166.18867749  .00000058  00000+0  46636-4 0  9998
2 37387  98.7644 233.6442 0010168 261.9061  98.0963 14.21605985785896
HAIYANG-2A              
1 37781U 11043A   26166.14564926 -.00000156  00000+0 -11882-3 0  9999
2 37781  99.3388 168.8667 0006215  94.0539 266.1321 13.74458398746374
RASAT                   
1 37791U 11044D   26166.20535679  .00000496  00000+0  94432-4 0  9999
2 37791  98.0580 257.6320 0020017 195.2215 249.1956 14.68164960792895
SRMSAT                  
1 37841U 11058D   26166.09346315  .00000356  00000+0  49299-4 0  9990
2 37841  19.9720  72.1399 0011839 180.5594 207.7984 14.11575160757522
PLEIADES 1A             
1 38012U 11076F   26166.20914931  .00000275  00000+0  69063-4 0  9990
2 38012  98.1982 241.3382 0001619  97.4941 347.0129 14.58569979771708
ZIYUAN 1-02C (ZY 1-02C) 
1 38038U 11079A   26166.20317575  .00000156  00000+0  65420-4 0  9993
2 38038  98.4079 233.5528 0005606 323.6105 129.4038 14.38212729758923
ARIRANG-3 (KOMPSAT-3)   
1 38338U 12025B   26166.18508328  .00000361  00000+0  80871-4 0  9998
2 38338  98.1176 123.6795 0006610 114.4264 245.7628 14.62204582751053
EXACTVIEW-1 (ADS-1B)    
1 38709U 12039C   26165.92368865  .00000085  00000+0  56289-4 0  9995
2 38709  98.9775 283.2628 0011044 172.7590 187.3749 14.24983955722387
SPOT 6                  
1 38755U 12047A   26166.20839208  .00000065  00000+0  23830-4 0  9995
2 38755  98.2126 233.5401 0001493  93.0431 267.0939 14.58561382732767
PLEIADES 1B             
1 39019U 12068A   26166.22730642  .00000270  00000+0  67810-4 0  9990
2 39019  98.1954 241.3055 0001650  93.0090 267.1298 14.58559554720569
GOKTURK 2               
1 39030U 12073A   26166.18202861  .00000672  00000+0  10564-3 0  9990
2 39030  97.6816   3.7145 0001667  57.7961 302.3411 14.75541742724219
LANDSAT 8               
1 39084U 13008A   26166.17063475  .00000268  00000+0  69657-4 0  9992
2 39084  98.2302 236.3298 0001358  93.6236 266.5117 14.57093224697602
SARAL                   
1 39086U 13009A   26165.94599158  .00000081  00000+0  45892-4 0  9999
2 39086  98.5556 352.5416 0000817 323.5406  36.5722 14.32855455695288
GAOFEN-1                
1 39150U 13018A   26165.96222324  .00000659  00000+0  10161-3 0  9992
2 39150  97.9102 238.0750 0015711 274.2864  85.6551 14.76534617707919
VNREDSAT 1              
1 39160U 13021B   26166.17641667  .00000401  00000+0  83499-4 0  9996
2 39160  97.9085 219.6700 0001705  90.1334 270.0065 14.64854848699991
ARIRANG-5 (KOMPSAT-5)   
1 39227U 13042A   26166.17082058  .00001159  00000+0  87144-4 0  9998
2 39227  97.6205 352.9000 0005234 124.8435 235.3284 15.04486149703553
SKYSAT-A                
1 39418U 13066C   26166.14094837  .00002926  00000+0  16874-3 0  9995
2 39418  97.3815 215.6034 0020259 324.9859  35.0039 15.12966700688176
DUBAISAT-2              
1 39419U 13066D   26166.21553532  .00001989  00000+0  12550-3 0  9991
2 39419  97.4556 156.4106 0012588  47.3070 312.9218 15.10168845686096
GPM-CORE                
1 39574U 14009C   26166.13747334  .00010673  00000+0  23326-3 0  9990
2 39574  64.9724 314.9909 0011940 250.7934 109.1914 15.44532602697494
SENTINEL-1A             
1 39634U 14016A   26166.17321094 -.00000385  00000+0 -72037-4 0  9995
2 39634  98.1773 173.7351 0001423  82.2559 277.8802 14.59197881649725
KAZEOSAT 1              
1 39731U 14024A   26166.14830861  .00000163  00000+0  62526-4 0  9990
2 39731  98.3212 238.6459 0001376  73.9628 286.1713 14.42079355638262
ALOS-2                  
1 39766U 14029A   26166.24544609  .00001574  00000+0  21759-3 0  9995
2 39766  97.9222 263.4363 0001672  93.1225 267.0178 14.79467123651297
KAZEOSAT 2              
1 40010U 14033A   26166.14186547  .00000414  00000+0  53767-4 0  9993
2 40010  97.5406   5.8624 0008099 337.0285  23.0568 14.85468375648651
